GPS BIIA-23 (PRN 18)    
1 22877U 93068A   18090.43872892 -.00000011  00000-0  00000+0 0  9995
2 22877  54.3755  86.6943 0141043  73.9520 346.1431  2.00563460178983
GPS BIIR-2  (PRN 13)    
1 24876U 97035A   18090.24902974 -.00000029  00000-0  00000+0 0  9997
2 24876  55.4995 215.8254 0033338  92.3459 267.9994  2.00565211151583
GPS BIIR-3  (PRN 11)    
1 25933U 99055A   18090.43292845 -.00000054  00000-0  00000+0 0  9994
2 25933  51.8367  65.0783 0165007 100.2058 316.9161  2.00568927135407
GPS BIIR-4  (PRN 20)    
1 26360U 00025A   18090.36392134  .00000025  00000-0  00000+0 0  9999
2 26360  53.1767 142.9078 0040837 110.5299 346.3608  2.00428584131095
GPS BIIR-5  (PRN 28)    
1 26407U 00040A   18090.09313993 -.00000064  00000-0  00000+0 0  9998
2 26407  56.5179 333.9472 0198227 272.7806 287.6754  2.00563695129777
GPS BIIR-6  (PRN 14)    
1 26605U 00071A   18090.38864258 -.00000028  00000-0  00000+0 0  9999
2 26605  55.0721 213.4417 0097560 248.3094  69.8848  2.00554582127374
GPS BIIR-8  (PRN 16)    
1 27663U 03005A   18090.32268660 -.00000065  00000-0  00000+0 0  9994
2 27663  56.5832 333.6925 0098929  26.9562  97.2802  2.00571730111133
GPS BIIR-9  (PRN 21)    
1 27704U 03010A   18090.27187854 -.00000011  00000-0  00000+0 0  9996
2 27704  54.0447  86.3129 0246985 269.7335 139.4969  2.00555979109939
GPS BIIR-10 (PRN 22)    
1 28129U 03058A   18090.43891689  .00000023  00000-0  00000+0 0  9998
2 28129  52.9895 145.7792 0076432 269.2777  89.9277  2.00576995104638
GPS BIIR-11 (PRN 19)    
1 28190U 04009A   18090.15210506 -.00000089  00000-0  00000+0 0  9998
2 28190  56.1431  34.5786 0095818  65.0414  86.3284  2.00560025102808
GPS BIIR-12 (PRN 23)    
1 28361U 04023A   18090.49252215 -.00000026  00000-0  00000+0 0  9995
2 28361  54.0691 208.2572 0123600 224.3979  88.9759  2.00575120100897
GPS BIIR-13 (PRN 02)    
1 28474U 04045A   18090.29437275 -.00000011  00000-0  00000+0 0  9997
2 28474  54.4158  85.8953 0180920 252.8063 278.2308  2.00559395 98250
GPS BIIRM-1 (PRN 17)    
1 28874U 05038A   18090.12140071 -.00000091  00000-0  00000+0 0  9999
2 28874  56.2877  31.8805 0125456 258.1097 249.5512  2.00551096 91653
GPS BIIRM-2 (PRN 31)    
1 29486U 06042A   18090.47913042 -.00000026  00000-0  00000+0 0  9997
2 29486  55.2253 270.7798 0088279 350.6994 341.7798  2.00568265 84378
GPS BIIRM-3 (PRN 12)    
1 29601U 06052A   18089.96493328 -.00000062  00000-0  00000+0 0  9999
2 29601  56.5584 332.6240 0069346  53.1323 307.5523  2.00570308 83289
GPS BIIRM-4 (PRN 15)    
1 32260U 07047A   18089.78063037 -.00000031  00000-0  00000+0 0  9995
2 32260  53.1933 204.3786 0100542  37.5425 323.1336  2.00558377 76660
GPS BIIRM-5 (PRN 29)    
1 32384U 07062A   18090.40404542 -.00000091  00000-0  00000+0 0  9996
2 32384  56.3596  32.4721 0004772  32.3803 192.0515  2.00558918 75401
GPS BIIRM-6 (PRN 07)    
1 32711U 08012A   18090.19261416 -.00000026  00000-0  00000+0 0  9991
2 32711  54.9580 270.0892 0114581 215.2908 143.9226  2.00562883 73586
GPS BIIRM-8 (PRN 05)    
1 35752U 09043A   18090.29861654  .00000025  00000-0  00000+0 0  9993
2 35752  54.2999 147.8706 0051592  32.9725  74.3729  2.00563549 63178
GPS BIIF-1  (PRN 25)    
1 36585U 10022A   18090.18930919 -.00000061  00000-0  00000+0 0  9997
2 36585  55.8525 329.2317 0072204  46.5208  83.4677  2.00564674 57412
GPS BIIF-2  (PRN 01)    
1 37753U 11036A   18090.49066244 -.00000004  00000-0  00000+0 0  9993
2 37753  55.6163  89.3204 0074031  33.4937  41.3113  2.00563870 49101
GPS BIIF-3  (PRN 24)    
1 38833U 12053A   18090.37439394 -.00000029  00000-0  00000+0 0  9997
2 38833  53.9873 266.7155 0067867  29.3409 331.0093  2.00565646 40170
GPS BIIF-4  (PRN 27)    
1 39166U 13023A   18090.22994218 -.00000094  00000-0  00000+0 0  9992
2 39166  55.9872  28.7978 0056730  19.5794 340.6209  2.00563113 35700
GPS BIIF-5  (PRN 30)    
1 39533U 14008A   18089.23029312 -.00000020  00000-0  00000+0 0  9996
2 39533  54.1347 272.1010 0031931 184.8142 175.1410  2.00553531 30047
GPS BIIF-6  (PRN 06)    
1 39741U 14026A   18090.01283801 -.00000001  00000-0  00000+0 0  9999
2 39741  55.6004  88.8620 0014204 289.9934  69.8716  2.00572546 28348
GPS BIIF-7  (PRN 09)    
1 40105U 14045A   18090.10479622 -.00000029  00000-0  00000+0 0  9994
2 40105  54.5944 208.3353 0008570 107.4788 252.5896  2.00565573 26796
GPS BIIF-8  (PRN 03)    
1 40294U 14068A   18089.97050908  .00000026  00000-0  00000+0 0  9999
2 40294  55.0503 149.0890 0011741  16.7725 343.3467  2.00549824 25014
GPS BIIF-9  (PRN 26)    
1 40534U 15013A   18090.11061665 -.00000062  00000-0  00000+0 0  9998
2 40534  54.7966 328.0362 0027646   0.0609 359.9896  2.00568380 22082
GPS BIIF-10  (PRN 08)   
1 40730U 15033A   18090.27774826 -.00000095  00000-0  00000+0 0  9991
2 40730  55.5185  28.3376 0035460 329.1097  30.6676  2.00550744 19840
GPS BIIF-11  (PRN 10)   
1 41019U 15062A   18090.32364128  .00000026  00000-0  00000+0 0  9993
2 41019  55.0564 148.8750 0034998 204.5435 155.3699  2.00564228 17668
GPS BIIF-12  (PRN 32)   
1 41328U 16007A   18089.91265686 -.00000030  00000-0  00000+0 0  9994
2 41328  54.8464 208.6114 0020109 214.6018 145.2409  2.00566131 15710
